NORAD_CAT_ID,OBJECT_NAME,OBJECT_TYPE,EPOCH,MEAN_MOTION,ECCENTRICITY,INCLINATION,RA_OF_ASC_NODE,ARG_OF_PERICENTER,MEAN_ANOMALY,BSTAR,MEAN_MOTION_DOT,MEAN_MOTION_DDOT,TLE_LINE0,TLE_LINE1,TLE_LINE2,SEMIMAJOR_AXIS,PERIOD,APOGEE,PERIGEE,DECAYED
49153.0,STARLINK-3072,PAYLOAD,2022-05-30 06:00:00,14.96709303,0.0003172,69.9991,131.7076,281.7885,165.2464,0.00063306,7.161e-05,0.0,0 STARLINK-3072,1 49153U 21082Z   22150.25001157  .00007161  00000-0  63306-3 0  9992,2 49153  69.9991 131.7076 0003172 281.7885 165.2464 14.96709303 40367,6955.209,96.211,579.28,574.868,0.0
49153.0,STARLINK-3072,PAYLOAD,2022-05-30 14:00:01,14.96739719,0.0003112,69.999,130.8692,281.8795,160.694,-0.0044265,-0.00050424,0.0,0 STARLINK-3072,1 49153U 21082Z   22150.58334491 -.00050424  00000-0 -44265-2 0  9992,2 49153  69.9990 130.8692 0003112 281.8795 160.6940 14.96739719  1308,6955.115,96.209,579.144,574.816,0.0
49153.0,STARLINK-3072,PAYLOAD,2022-05-30 22:00:00,14.9671245,0.0003087,69.9995,130.031,276.8743,161.2511,0.0023929,0.00027402,0.0,0 STARLINK-3072,1 49153U 21082Z   22150.91667824  .00027402  00000-0  23929-2 0  9990,2 49153  69.9995 130.0310 0003087 276.8743 161.2511 14.96712450  1304,6955.2,96.211,579.212,574.9169999999998,0.0
49153.0,STARLINK-3072,PAYLOAD,2022-05-31 05:40:20,14.96713966,0.000313,69.9981,129.2272,280.1612,79.9193,6.5498e-05,6.58e-06,0.0,0 STARLINK-3072,1 49153U 21082Z   22151.23634707  .00000658  00000-0  65498-4 0  9993,2 49153  69.9981 129.2272 0003130 280.1612  79.9193 14.96713966 41711,6955.195,96.211,579.237,574.883,0.0
49153.0,STARLINK-3072,PAYLOAD,2022-05-31 06:00:02,14.96712938,0.0003133,69.9995,129.1927,282.7318,151.0167,0.0010275,0.00011688,0.0,0 STARLINK-3072,1 49153U 21082Z   22151.25002315  .00011688  00000-0  10275-2 0  9995,2 49153  69.9995 129.1927 0003133 282.7318 151.0167 14.96712938 40514,6955.198,96.211,579.242,574.884,0.0
49153.0,STARLINK-3072,PAYLOAD,2022-05-31 22:00:00,14.96730665,0.0003054,69.9997,127.5161,277.2182,147.57,-0.00048583,-5.65e-05,0.0,0 STARLINK-3072,1 49153U 21082Z   22151.91667824 -.00005650  00000-0 -48583-3 0  9998,2 49153  69.9997 127.5161 0003054 277.2182 147.5700 14.96730665  1302,6955.143,96.21,579.132,574.884,0.0
49153.0,STARLINK-3072,PAYLOAD,2022-06-01 06:00:00,14.96697999,0.0003176,69.9998,126.6777,282.8621,137.4974,0.00041904,4.706e-05,0.0,0 STARLINK-3072,1 49153U 21082Z   22152.25001157  .00004706  00000-0  41904-3 0  9996,2 49153  69.9998 126.6777 0003176 282.8621 137.4974 14.96697999 40666,6955.244000000002,96.212,579.318,574.9,0.0
49153.0,STARLINK-3072,PAYLOAD,2022-06-01 20:00:01,14.966749599999998,0.0003105,69.9997,125.2107,276.6184,45.9237,0.0051518,0.00059316,0.0,0 STARLINK-3072,1 49153U 21082Z   22152.83334491  .00059316  00000-0  51518-2 0  9998,2 49153  69.9997 125.2107 0003105 276.6184  45.9237 14.96674960  1300,6955.316,96.213,579.34,575.021,0.0
49153.0,STARLINK-3072,PAYLOAD,2022-06-02 15:24:55,14.96712094,0.000321,69.9976,123.1755,278.8308,81.2486,-7.3947e-05,-9.38e-06,0.0,0 STARLINK-3072,1 49153U 21082Z   22153.64230428 -.00000938  00000-0 -73947-4 0  9993,2 49153  69.9976 123.1755 0003210 278.8308  81.2486 14.96712094 40866,6955.201,96.211,579.298,574.8330000000002,0.0
49153.0,STARLINK-3072,PAYLOAD,2022-06-03 07:27:17,14.96706662,0.0003167,69.9983,121.4952,279.2207,80.8593,6.606300000000001e-05,6.64e-06,0.0,0 STARLINK-3072,1 49153U 21082Z   22154.31062468  .00000664  00000-0  66063-4 0  9990,2 49153  69.9983 121.4952 0003167 279.2207  80.8593 14.96706662 42172,6955.217,96.211,579.285,574.88,0.0
49153.0,STARLINK-3072,PAYLOAD,2022-06-04 04:18:23,14.96711051,0.0003175,69.9984,119.3101,279.0222,81.0577,6.7903e-05,6.86e-06,0.0,0 STARLINK-3072,1 49153U 21082Z   22155.17944134  .00000686  00000-0  67903-4 0  9992,2 49153  69.9984 119.3101 0003175 279.0222  81.0577 14.96711051 41092,6955.204000000002,96.211,579.2769999999998,574.861,0.0
49153.0,STARLINK-3072,PAYLOAD,2022-06-04 07:30:52,14.96712221,0.0003164,69.9984,118.9738,279.0503,81.0298,7.8788e-05,8.1e-06,0.0,0 STARLINK-3072,1 49153U 21082Z   22155.31310460  .00000810  00000-0  78788-4 0  9999,2 49153  69.9984 118.9738 0003164 279.0503  81.0298 14.96712221 42320,6955.2,96.211,579.266,574.865,0.0
49153.0,STARLINK-3072,PAYLOAD,2022-06-05 22:00:00,14.96753535,0.0003163,70.0005,114.9412,275.8511,82.1322,-0.0041138,-0.00046909,0.0,0 STARLINK-3072,1 49153U 21082Z   22156.91667824 -.00046909  00000-0 -41138-2 0  9993,2 49153  70.0005 114.9412 0003163 275.8511  82.1322 14.96753535 41359,6955.071999999999,96.208,579.137,574.737,0.0
49153.0,STARLINK-3072,PAYLOAD,2022-06-06 14:00:01,14.96713466,0.0003155,70.0,113.2644,279.4319,69.6643,-0.002264,-0.00025908,0.0,0 STARLINK-3072,1 49153U 21082Z   22157.58334491 -.00025908  00000-0 -22640-2 0  9991,2 49153  70.0000 113.2644 0003155 279.4319  69.6643 14.96713466  1306,6955.196,96.211,579.256,574.867,0.0
49153.0,STARLINK-3072,PAYLOAD,2022-06-06 20:27:55,14.9671032,0.0003095,69.9997,112.5868,277.9372,82.1435,-6.6982e-05,-8.58e-06,0.0,0 STARLINK-3072,1 49153U 21082Z   22157.85272062 -.00000858  00000-0 -66982-4 0  9992,2 49153  69.9997 112.5868 0003095 277.9372  82.1435 14.96710320 41492,6955.206,96.211,579.224,574.918,0.0
49153.0,STARLINK-3072,PAYLOAD,2022-06-07 06:05:20,14.96714191,0.0003104,69.9987,111.578,277.5846,82.49600000000002,-5.7417e-05,-7.49e-06,0.0,0 STARLINK-3072,1 49153U 21082Z   22158.25371009 -.00000749  00000-0 -57417-4 0  9990,2 49153  69.9987 111.5780 0003104 277.5846  82.4960 14.96714191 42763,6955.194,96.211,579.2180000000002,574.9,0.0
49153.0,STARLINK-3072,PAYLOAD,2022-06-07 20:31:28,14.96720964,0.0003085,69.9989,110.0655,277.4901,82.5906,-4.1367e-05,-5.65e-06,0.0,0 STARLINK-3072,1 49153U 21082Z   22158.85519275 -.00000565  00000-0 -41367-4 0  9998,2 49153  69.9989 110.0655 0003085 277.4901  82.5906 14.96720964 41641,6955.1730000000025,96.21,579.184,574.8919999999998,0.0
49153.0,STARLINK-3072,PAYLOAD,2022-06-08 06:08:54,14.96721524,0.0003117,69.9987,109.0567,277.6589,82.4215,-1.1781e-05,-2.26e-06,0.0,0 STARLINK-3072,1 49153U 21082Z   22159.25618227 -.00000226  00000-0 -11781-4 0  9991,2 49153  69.9987 109.0567 0003117 277.6589  82.4215 14.96721524 42915,6955.170999999999,96.21,579.2040000000002,574.868,0.0
49153.0,STARLINK-3072,PAYLOAD,2022-06-08 14:10:05,14.96733227,0.0003088,69.999,108.2164,278.3993,81.6815,-0.0001555,-1.872e-05,0.0,0 STARLINK-3072,1 49153U 21082Z   22159.59033623 -.00001872  00000-0 -15550-3 0  9994,2 49153  69.9990 108.2164 0003088 278.3993  81.6815 14.96733227 41758,6955.135,96.21,579.148,574.852,0.0
49153.0,STARLINK-3072,PAYLOAD,2022-06-08 20:35:02,14.96718603,0.000324,69.999,107.5444,278.181,81.898,0.00010225,1.079e-05,0.0,0 STARLINK-3072,1 49153U 21082Z   22159.85766765  .00001079  00000-0  10225-3 0  9994,2 49153  69.9990 107.5444 0003240 278.1810  81.8980 14.96718603 43003,6955.18,96.21,579.299,574.7919999999998,0.0
49153.0,STARLINK-3072,PAYLOAD,2022-06-09 02:59:59,14.96714158,0.0003253999999999,69.9989,106.8717,277.5617,82.5172,4.4716e-05,4.2e-06,0.0,0 STARLINK-3072,1 49153U 21082Z   22160.12499943  .00000420  00000-0  44716-4 0  9999,2 49153  69.9989 106.8717 0003254 277.5617  82.5172 14.96714158 41830,6955.194,96.211,579.322,574.7959999999998,0.0
49153.0,STARLINK-3072,PAYLOAD,2022-06-09 06:12:28,14.96712676,0.0003276,69.999,106.5355,277.4383,82.6403,2.5689e-05,2.02e-06,0.0,0 STARLINK-3072,1 49153U 21082Z   22160.25866491  .00000202  00000-0  25689-4 0  9995,2 49153  69.9990 106.5355 0003276 277.4383  82.6403 14.96712676 43068,6955.199000000001,96.211,579.342,574.785,0.0
49153.0,STARLINK-3072,PAYLOAD,2022-06-10 06:16:02,14.96717676,0.000321,69.9986,104.0139,277.1209,82.9585,-1.8571e-06,-1.13e-06,0.0,0 STARLINK-3072,1 49153U 21082Z   22161.26114325 -.00000113  00000-0 -18571-5 0  9995,2 49153  69.9986 104.0139 0003210 277.1209  82.9585 14.96717676 42000,6955.183000000001,96.211,579.281,574.816,0.0
49153.0,STARLINK-3072,PAYLOAD,2022-06-10 20:42:11,14.96719562,0.0003201,69.9972,102.5008,276.8647,83.2147,-2.3326e-05,-3.59e-06,0.0,0 STARLINK-3072,1 49153U 21082Z   22161.86262912 -.00000359  00000-0 -23326-4 0  9992,2 49153  69.9972 102.5008 0003201 276.8647  83.2147 14.96719562 43303,6955.178000000001,96.21,579.269,574.816,0.0
49153.0,STARLINK-3072,PAYLOAD,2022-06-11 12:44:34,14.9670695,0.000313,69.9991,100.8205,277.5949,82.4853,-9.5688e-06,-2.01e-06,0.0,0 STARLINK-3072,1 49153U 21082Z   22162.53095812 -.00000201  00000-0 -95688-5 0  9997,2 49153  69.9991 100.8205 0003130 277.5949  82.4853 14.96706950 42196,6955.217,96.211,579.259,574.905,0.0
49153.0,STARLINK-3072,PAYLOAD,2022-06-11 20:45:46,14.96705794,0.0003163,69.9989,99.9802,276.7137,83.3662,-0.00013784,-1.669e-05,0.0,0 STARLINK-3072,1 49153U 21082Z   22162.86512555 -.00001669  00000-0 -13784-3 0  9995,2 49153  69.9989  99.9802 0003163 276.7137  83.3662 14.96705794 43453,6955.22,96.211,579.285,574.885,0.0
49153.0,STARLINK-3072,PAYLOAD,2022-06-12 12:48:09,14.96712493,0.000306,69.9987,98.2995,276.2622,83.8187,-2.9569e-05,-4.3e-06,0.0,0 STARLINK-3072,1 49153U 21082Z   22163.53344045 -.00000430  00000-0 -29569-4 0  9991,2 49153  69.9987  98.2995 0003060 276.2622  83.8187 14.96712493 42344,6955.199000000001,96.211,579.193,574.936,0.0
49153.0,STARLINK-3072,PAYLOAD,2022-06-12 20:49:20,14.96710411,0.0002794,69.9994,97.4583,277.8788,82.2053,9.0853e-05,9.48e-06,0.0,0 STARLINK-3072,1 49153U 21082Z   22163.86759921  .00000948  00000-0  90853-4 0  9996,2 49153  69.9994  97.4583 0002794 277.8788  82.2053 14.96710411 43602,6955.206,96.211,579.014,575.128,0.0
49153.0,STARLINK-3072,PAYLOAD,2022-06-13 12:51:42,14.96716634,0.0002773,69.9991,95.7777,276.6703,83.4139,0.00018852,2.067e-05,0.0,0 STARLINK-3072,1 49153U 21082Z   22164.53591369  .00002067  00000-0  18852-3 0  9993,2 49153  69.9991  95.7777 0002773 276.6703  83.4139 14.96716634 43708,6955.187,96.211,578.98,575.123,0.0
